GLOBALSTAR M057         
1 25943U 99058A   24347.80552469 -.00000053  00000+0  36687-3 0  9994
2 25943  51.9956 157.1458 0002525  24.9137 335.1834 12.24804994144099
GLOBALSTAR M059         
1 25944U 99058B   24347.53098251 -.00000019  00000+0  83677-3 0  9992
2 25944  52.0042 352.1351 0000138 332.8797 198.6345 11.99973344551636
GLOBALSTAR M039         
1 25961U 99062A   24347.77380128 -.00000098  00000+0  30725-4 0  9993
2 25961  51.9835 116.4882 0001650 298.3269  61.7431 12.62313304156679
GLOBALSTAR M034         
1 25962U 99062B   24347.86701516 -.00000062  00000+0  29786-3 0  9997
2 25962  51.9847 135.7092 0014802  53.4553 113.1731 11.79437386116405
GLOBALSTAR M029         
1 25963U 99062C   24348.19338792 -.00000039  00000+0  59048-3 0  9995
2 25963  51.9790 238.5410 0003365  98.0126  71.0864 11.99888949146849
